{
  "type": "FeatureCollection",
  "features": [
    {
      "type": "Feature",
      "properties": {
        "norad_id": 40115,
        "name": "WORLDVIEW-3 (WV-3)",
        "group": "resource",
        "lat": -77.67521120043307,
        "lon": -158.7275669070269,
        "alt_km": 618.7652809648716,
        "timestamp": "2025-12-14T05:42:18.114633+00:00",
        "meta_object_name": "WORLDVIEW-3 (WV-3)",
        "meta_object_id": "2014-048A",
        "meta_epoch": "2025-12-13T15:36:12.578112",
        "meta_mean_motion": 14.85515436,
        "meta_eccentricity": 0.00048673,
        "meta_inclination": 97.8615,
        "meta_ra_of_asc_node": 59.919,
        "meta_arg_of_pericenter": 181.4476,
        "meta_mean_anomaly": 178.6726,
        "meta_ephemeris_type": 0,
        "meta_classification_type": "U",
        "meta_norad_cat_id": 40115,
        "meta_element_set_no": 999,
        "meta_rev_at_epoch": 61437,
        "meta_bstar": 0.0001863981,
        "meta_mean_motion_dot": 1.556e-05,
        "meta_mean_motion_ddot": 0,
        "tle_line1": "1 40115U 14048A   25347.65014558  .00001556  00000+0  18640-3 0  9991",
        "tle_line2": "2 40115  97.8615  59.9190 0004867 181.4476 178.6726 14.85515436614378"
      },
      "geometry": {
        "type": "Point",
        "coordinates": [
          -158.7275669070269,
          -77.67521120043307
        ]
      }
    },
    {
      "type": "Feature",
      "properties": {
        "norad_id": 40118,
        "name": "GAOFEN-2",
        "group": "resource",
        "lat": 50.58845874984817,
        "lon": 37.50597657555388,
        "alt_km": 619.4275045273635,
        "timestamp": "2025-12-14T05:42:18.114643+00:00",
        "meta_object_name": "GAOFEN-2",
        "meta_object_id": "2014-049A",
        "meta_epoch": "2025-12-13T16:29:55.642848",
        "meta_mean_motion": 14.80614512,
        "meta_eccentricity": 0.00086321,
        "meta_inclination": 98.0383,
        "meta_ra_of_asc_node": 46.8573,
        "meta_arg_of_pericenter": 109.9277,
        "meta_mean_anomaly": 250.2866,
        "meta_ephemeris_type": 0,
        "meta_classification_type": "U",
        "meta_norad_cat_id": 40118,
        "meta_element_set_no": 999,
        "meta_rev_at_epoch": 61178,
        "meta_bstar": 0.00023616679,
        "meta_mean_motion_dot": 1.76e-05,
        "meta_mean_motion_ddot": 0,
        "tle_line1": "1 40118U 14049A   25347.68744957  .00001760  00000+0  23617-3 0  9998",
        "tle_line2": "2 40118  98.0383  46.8573 0008632 109.9277 250.2866 14.80614512611788"
      },
      "geometry": {
        "type": "Point",
        "coordinates": [
          37.50597657555388,
          50.58845874984817
        ]
      }
    },
    {
      "type": "Feature",
      "properties": {
        "norad_id": 40143,
        "name": "YAOGAN-21",
        "group": "resource",
        "lat": -65.73585849771806,
        "lon": -164.74424909415146,
        "alt_km": 507.63920118109127,
        "timestamp": "2025-12-14T05:42:18.114653+00:00",
        "meta_object_name": "YAOGAN-21",
        "meta_object_id": "2014-053A",
        "meta_epoch": "2025-12-13T16:00:59.363136",
        "meta_mean_motion": 15.23696572,
        "meta_eccentricity": 0.00096628,
        "meta_inclination": 97.1756,
        "meta_ra_of_asc_node": 30.94,
        "meta_arg_of_pericenter": 37.92,
        "meta_mean_anomaly": 322.2717,
        "meta_ephemeris_type": 0,
        "meta_classification_type": "U",
        "meta_norad_cat_id": 40143,
        "meta_element_set_no": 999,
        "meta_rev_at_epoch": 62668,
        "meta_bstar": 0.00039668215,
        "meta_mean_motion_dot": 9.47e-05,
        "meta_mean_motion_ddot": 0,
        "tle_line1": "1 40143U 14053A   25347.66735374  .00009470  00000+0  39668-3 0  9991",
        "tle_line2": "2 40143  97.1756  30.9400 0009662  37.9200 322.2717 15.23696572626687"
      },
      "geometry": {
        "type": "Point",
        "coordinates": [
          -164.74424909415146,
          -65.73585849771806
        ]
      }
    },
    {
      "type": "Feature",
      "properties": {
        "norad_id": 40275,
        "name": "YAOGAN-22",
        "group": "resource",
        "lat": 40.162427440658035,
        "lon": 122.45955837428122,
        "alt_km": 1202.6798421184603,
        "timestamp": "2025-12-14T05:42:18.114664+00:00",
        "meta_object_name": "YAOGAN-22",
        "meta_object_id": "2014-063A",
        "meta_epoch": "2025-12-13T16:43:13.177056",
        "meta_mean_motion": 13.15522642,
        "meta_eccentricity": 0.00059602,
        "meta_inclination": 100.7422,
        "meta_ra_of_asc_node": 131.1297,
        "meta_arg_of_pericenter": 245.9397,
        "meta_mean_anomaly": 114.1091,
        "meta_ephemeris_type": 0,
        "meta_classification_type": "U",
        "meta_norad_cat_id": 40275,
        "meta_element_set_no": 999,
        "meta_rev_at_epoch": 53542,
        "meta_bstar": 1.6334489e-05,
        "meta_mean_motion_dot": -4e-07,
        "meta_mean_motion_ddot": 0,
        "tle_line1": "1 40275U 14063A   25347.69668029 -.00000040  00000+0  16334-4 0  9994",
        "tle_line2": "2 40275 100.7422 131.1297 0005960 245.9397 114.1091 13.15522642535426"
      },
      "geometry": {
        "type": "Point",
        "coordinates": [
          122.45955837428122,
          40.162427440658035
        ]
      }
    },
    {
      "type": "Feature",
      "properties": {
        "norad_id": 40298,
        "name": "ASNARO",
        "group": "resource",
        "lat": -82.30773143283258,
        "lon": 137.41068465311844,
        "alt_km": 518.0979904403384,
        "timestamp": "2025-12-14T05:42:18.114674+00:00",
        "meta_object_name": "ASNARO",
        "meta_object_id": "2014-070A",
        "meta_epoch": "2025-12-13T15:52:02.800992",
        "meta_mean_motion": 15.19533369,
        "meta_eccentricity": 0.00056349,
        "meta_inclination": 97.365,
        "meta_ra_of_asc_node": 63.5847,
        "meta_arg_of_pericenter": 118.353,
        "meta_mean_anomaly": 241.8274,
        "meta_ephemeris_type": 0,
        "meta_classification_type": "U",
        "meta_norad_cat_id": 40298,
        "meta_element_set_no": 999,
        "meta_rev_at_epoch": 61583,
        "meta_bstar": 0.00088440535,
        "meta_mean_motion_dot": 0.00018766,
        "meta_mean_motion_ddot": 0,
        "tle_line1": "1 40298U 14070A   25347.66114353  .00018766  00000+0  88441-3 0  9990",
        "tle_line2": "2 40298  97.3650  63.5847 0005634 118.3530 241.8274 15.19533369615833"
      },
      "geometry": {
        "type": "Point",
        "coordinates": [
          137.41068465311844,
          -82.30773143283258
        ]
      }
    },
    {
      "type": "Feature",
      "properties": {
        "norad_id": 40310,
        "name": "YAOGAN-24",
        "group": "resource",
        "lat": 10.924980983121962,
        "lon": 117.75886447296213,
        "alt_km": 648.3806519613963,
        "timestamp": "2025-12-14T05:42:18.114684+00:00",
        "meta_object_name": "YAOGAN-24",
        "meta_object_id": "2014-072A",
        "meta_epoch": "2025-12-13T15:00:50.097312",
        "meta_mean_motion": 14.76182881,
        "meta_eccentricity": 0.00147979,
        "meta_inclination": 98.1217,
        "meta_ra_of_asc_node": 118.7232,
        "meta_arg_of_pericenter": 135.2228,
        "meta_mean_anomaly": 225.0179,
        "meta_ephemeris_type": 0,
        "meta_classification_type": "U",
        "meta_norad_cat_id": 40310,
        "meta_element_set_no": 999,
        "meta_rev_at_epoch": 59634,
        "meta_bstar": 0.00031551035,
        "meta_mean_motion_dot": 2.133e-05,
        "meta_mean_motion_ddot": 0,
        "tle_line1": "1 40310U 14072A   25347.62557983  .00002133  00000+0  31551-3 0  9994",
        "tle_line2": "2 40310  98.1217 118.7232 0014797 135.2228 225.0179 14.76182881596342"
      },
      "geometry": {
        "type": "Point",
        "coordinates": [
          117.75886447296213,
          10.924980983121962
        ]
      }
    },
    {
      "type": "Feature",
      "properties": {
        "norad_id": 40336,
        "name": "CBERS 4",
        "group": "resource",
        "lat": -71.0346859751682,
        "lon": -159.0348797635489,
        "alt_km": 781.5666445491661,
        "timestamp": "2025-12-14T05:42:18.114694+00:00",
        "meta_object_name": "CBERS 4",
        "meta_object_id": "2014-079A",
        "meta_epoch": "2025-12-13T16:49:15.081600",
        "meta_mean_motion": 14.35518637,
        "meta_eccentricity": 0.00016496,
        "meta_inclination": 98.3306,
        "meta_ra_of_asc_node": 45.6845,
        "meta_arg_of_pericenter": 110.9749,
        "meta_mean_anomaly": 249.1614,
        "meta_ephemeris_type": 0,
        "meta_classification_type": "U",
        "meta_norad_cat_id": 40336,
        "meta_element_set_no": 999,
        "meta_rev_at_epoch": 57734,
        "meta_bstar": 0.00011530531,
        "meta_mean_motion_dot": 2.9e-06,
        "meta_mean_motion_ddot": 0,
        "tle_line1": "1 40336U 14079A   25347.70086900  .00000290  00000+0  11531-3 0  9992",
        "tle_line2": "2 40336  98.3306  45.6845 0001649 110.9749 249.1614 14.35518637577346"
      },
      "geometry": {
        "type": "Point",
        "coordinates": [
          -159.0348797635489,
          -71.0346859751682
        ]
      }
    }
  ]
}